0 IRIDIUM 33 DEB
1 35846U 97051SW  13283.33525514  .00000934  00000-0  34172-3 0  1485
2 35846 086.3794 130.9157 0018693 312.8600 047.1024 14.31848930219391
0 IRIDIUM 33 DEB
1 35846U 97051SW  13285.85106813  .00000967  00000-0  35383-3 0  1493
2 35846 086.3789 129.8636 0018480 304.1006 055.8434 14.31852788219759
0 IRIDIUM 33 DEB
1 35846U 97051SW  13287.87768959  .00001467  00000-0  54066-3 0  1509
2 35846 086.3787 129.0159 0018399 296.9842 062.9474 14.31858361220044
0 IRIDIUM 33 DEB
1 35846U 97051SW  13290.32360223  .00001176  00000-0  43176-3 0  1513
2 35846 086.3787 127.9926 0018326 288.0644 071.8554 14.31864324220397
0 IRIDIUM 33 DEB
1 35846U 97051SW  13292.83938883  .00001259  00000-0  46277-3 0  1522
2 35846 086.3788 126.9399 0018317 278.9326 080.9795 14.31868498220750
0 IRIDIUM 33 DEB
1 35846U 97051SW  13295.84434551  .00001398  00000-0  51456-3 0  1539
2 35846 086.3787 125.6830 0018395 268.0651 091.8437 14.31875908221188
